REAL                    
1 64875U 25154G   26068.72233414  .00022901  00000+0  82904-3 0  9994
2 64875  97.4133 137.2581 0001853 118.5876 241.5550 15.28408058 34830
STARLINK-36547          
1 67520U 26012AD  26068.09471223  .00035030  00000+0  12758-2 0  9996
2 67520  43.0035 317.5088 0002611 260.6726  99.3831 15.27595629  7672
